STARLINK-5804           
1 55788U 23028AZ  26068.75673294 -.00000079  00000+0  11603-5 0  9995
2 55788  70.0006 204.3897 0003375 266.9531  93.1241 14.98330267167031
KOMPSAT-7               
1 66820U 25279A   26068.87103100  .00004022  00000+0  31599-3 0  9996
2 66820  97.6738  18.4558 0009895 343.5135  16.5766 15.01421798 14723
